HIMAWARI-8              
1 40267U 14060A   18039.00000000  .00000000  00000-0  00000-0 0 01285
2 40267 000.0143 255.8722 0000790 066.3707 316.4504 01.00272903 12263
HIMAWARI-8              
1 40267U 14060A   18025.12500000  .00000000  00000-0  00000-0 0 01277
2 40267 000.0035 167.2167 0000958 117.1524 025.6642 01.00274585 12125
HIMAWARI-8              
1 40267U 14060A   18018.00000000  .00000000  00000-0  00000-0 0 01260
2 40267 000.0426 271.4704 0001002 076.6848 269.8461 01.00271482 12059
HIMAWARI-8              
1 40267U 14060A   18011.04166667  .00000000  00000-0  00000-0 0 01258
2 40267 000.0081 290.0117 0000587 004.0216 332.1093 01.00271321 11980
HIMAWARI-8              
1 40267U 14060A   18004.00000000  .00000000  00000-0  00000-0 0 01243
2 40267 000.0237 284.5154 0001867 026.3176 293.3626 01.00272972 11912